*******************************************************************************
 Revised: April 12, 2021             Mercury                            199 / 1

 PHYSICAL DATA (updated 2024-Mar-04):
  Vol. Mean Radius (km) =  2439.4+-0.1    Density (g cm^-3)     = 5.427
  Mass x10^23 (kg)      =     3.302       Volume (x10^10 km^3)  = 6.085  
  Sidereal rot. period  =    58.6463 d    Sid. rot. rate (rad/s)= 0.00000124001
  Mean solar day        =   175.9421 d    Core radius (km)      = ~1600 
  Geometric Albedo      =     0.106       Surface emissivity    = 0.77+-0.06
  GM (km^3/s^2)         = 22031.86855     Equatorial radius, Re = 2440.53 km
  GM 1-sigma (km^3/s^2) =                 Mass ratio (Sun/plnt) = 6023682
  Mom. of Inertia       =     0.33        Equ. gravity  m/s^2   = 3.701     
  Atmos. pressure (bar) = < 5x10^-15      Max. angular diam.    = 11.0"   
  Mean Temperature (K)  = 440             Visual mag. V(1,0)    = -0.42 
  Obliquity to orbit[1] =  2.11' +/- 0.1' Hill's sphere rad. Rp = 94.4 
  Sidereal orb. per.    =  0.2408467 y    Mean Orbit vel.  km/s = 47.362 
  Sidereal orb. per.    = 87.969257  d    Escape vel. km/s      =  4.435
                                 Perihelion  Aphelion    Mean
  Solar Constant (W/m^2)         14462       6278        9126
  Maximum Planetary IR (W/m^2)   12700       5500        8000
  Minimum Planetary IR (W/m^2)   6           6           6
*******************************************************************************


*******************************************************************************
Ephemeris / WWW_USER Sun Nov 17 05:10:55 2024 Pasadena, USA      / Horizons    
*******************************************************************************
Target body name: Mercury (199)                   {source: DE441}
Center body name: Earth (399)                     {source: DE441}
Center-site name: (user defined site below)
*******************************************************************************
Start time      : A.D. 2022-Dec-01 00:00:00.0000 UT      
Stop  time      : A.D. 2026-Dec-01 00:00:00.0000 UT      
Step-size       : 1440 minutes
*******************************************************************************
Target pole/equ : IAU_MERCURY                     {West-longitude positive}
Target radii    : 2440.53, 2440.53, 2438.26 km    {Equator_a, b, pole_c}       
Center geodetic : 121.6333, 25.0333, 1.72871E-12  {E-lon(deg),Lat(deg),Alt(km)}
Center cylindric: 121.6333,5782.45421,2682.41715  {E-lon(deg),Dxy(km),Dz(km)}
Center pole/equ : ITRF93                          {East-longitude positive}
Center radii    : 6378.137, 6378.137, 6356.752 km {Equator_a, b, pole_c}       
Target primary  : Sun
Vis. interferer : MOON (R_eq= 1737.400) km        {source: DE441}
Rel. light bend : Sun                             {source: DE441}
Rel. lght bnd GM: 1.3271E+11 km^3/s^2                                          
Atmos refraction: NO (AIRLESS)
RA format       : HMS
Time format     : CAL 
Calendar mode   : Mixed Julian/Gregorian
EOP file        : eop.241115.p250211                                           
EOP coverage    : DATA-BASED 1962-JAN-20 TO 2024-NOV-15. PREDICTS-> 2025-FEB-10
Units conversion: 1 au= 149597870.700 km, c= 299792.458 km/s, 1 day= 86400.0 s 
Table cut-offs 1: Elevation (-90.0deg=NO ),Airmass (>38.000=NO), Daylight (NO )
Table cut-offs 2: Solar elongation (  0.0,180.0=NO ),Local Hour Angle( 0.0=NO )
Table cut-offs 3: RA/DEC angular rate (     0.0=NO )                           
Table format    : Comma Separated Values (spreadsheet)
***************************************************************************************************************************************************************************************************************************************************************************************************************************
 Date__(UT)__HR:MN, , , R.A._(ICRF), DEC__(ICRF), Azi_(a-app), Elev_(a-app),  dAZ*cosE, d(ELV)/dt,    APmag,  S-brt,    NP.ang,  NP.dist,             delta,     deldot,     S-O-T,/r,     S-T-O,     ObsEcLon,   ObsEcLat,  RA_(ICRF-a-app), DEC_(ICRF-a-app),  Sky_motion, Sky_mot_PA, RelVel-ANG,  Lun_Sky_Brt, sky_SNR,
***************************************************************************************************************************************************************************************************************************************************************************************************************************
$$SOE
 2026-Jan-13 00:00,*,m, 19 14 50.15, -23 59 40.7,  128.238829,    17.665696,    514.68,    639.36,   -0.940,  2.150,  356.1616,   -2.345,  1.42931539269258,  1.5688996,    5.6380,/L,   12.1068,  287.4071816, -1.6588906,      19 14 48.66,      -23 59 43.2,   3.9979516,  85.028188,  1.2954411,         n.a.,    n.a.,
 2026-Jan-14 00:00,*,m, 19 21 50.72, -23 50 41.8,  127.654784,    17.214637,    509.80,    644.49,   -0.990,  2.101,  355.3295,   -2.344,  1.43012912840594,  0.6144831,    5.0993,/L,   10.9860,  289.0154321, -1.7241575,      19 21 49.23,      -23 50 44.5,   4.0172362,  84.189883,  0.5012333,         n.a.,    n.a.,
 2026-Jan-15 00:00,*,m, 19 28 52.17, -23 40 15.6,  127.053577,    16.770536,    504.97,    649.70,   -1.043,  2.049,  354.4990,   -2.343,  1.43039025429062, -0.3517555,    4.5648,/L,    9.8739,  290.6317141, -1.7847600,      19 28 50.68,      -23 40 18.6,   4.0371564,  83.351737,  -0.294451,         n.a.,    n.a.,
 2026-Jan-16 00:00,*,m, 19 35 54.39, -23 28 21.4,  126.435072,    16.333402,    500.17,    654.98,   -1.100,  1.995,  353.6710,   -2.344,  1.43009129719479, -1.3320879,    4.0393,/L,    8.7785,  292.2562678, -1.8405134,      19 35 52.91,      -23 28 24.7,   4.0577073,  82.514414,  -1.093685,         n.a.,    n.a.,
 2026-Jan-17 00:00,*,m, 19 42 57.29, -23 14 58.6,  125.799135,    15.903246,    495.42,    660.33,   -1.159,  1.938,  352.8463,   -2.345,  1.42922344420388, -2.3288767,    3.5304,/L,    7.7145,  293.8893261, -1.8912253,      19 42 55.81,      -23 15 02.1,   4.0788741,  81.678567,  -1.898607,         n.a.,    n.a.,
 2026-Jan-18 00:00,*,m, 19 50 00.75, -23 00 06.4,  125.145635,    15.480081,    490.72,    665.75,   -1.221,  1.880,  352.0259,   -2.347,  1.42777648962640, -3.3445765,    3.0511,/L,    6.7086,  295.5311110, -1.9366943,      19 49 59.27,      -23 00 10.2,   4.1006302,  80.844835,  -2.711439,         n.a.,    n.a.,
 2026-Jan-19 00:00,*,m, 19 57 04.65, -22 43 44.3,  124.474451,    15.063926,    486.08,    671.22,   -1.282,  1.823,  351.2104,   -2.350,  1.42573878111104, -4.3817355,    2.6235,/L,    5.8084,  297.1818293, -1.9767096,      19 57 03.19,      -22 43 48.3,   4.1229369,  80.013841,  -3.534496,         n.a.,    n.a.,
 2026-Jan-20 00:00,*,m, 20 04 08.90, -22 25 51.7,  123.785472,    14.654809,    481.49,    676.74,   -1.337,  1.772,  350.4009,   -2.355,  1.42309716514179, -5.4429965,    2.2838,/L,    5.0950,  298.8416685, -2.0110502,      20 04 07.44,      -22 25 55.9,   4.1457408,  79.186187,  -4.370206,         n.a.,    n.a.,
 2026-Jan-21 00:00,*, , 20 11 13.36, -22 06 28.2,  123.078603,    14.252776,    476.96,    682.30,   -1.381,  1.734,  349.5982,   -2.360,  1.41983693233585, -6.5310961,    2.0836,/T,    4.6873,  300.5107906, -2.0394828,      20 11 11.91,      -22 06 32.7,   4.1689725,  78.362451,  -5.221129,         n.a.,    n.a.,
 2026-Jan-22 00:00,*, , 20 18 17.92, -21 45 33.4,  122.353769,    13.857890,    472.50,    687.89,   -1.406,  1.715,  348.8032,   -2.366,  1.41594176345702, -7.6488627,    2.0724,/T,    4.7048,  302.1893242, -2.0617619,      20 18 16.48,      -21 45 38.1,   4.1925435,  77.543181,  -6.089975,         n.a.,    n.a.,
 2026-Jan-23 00:00,*, , 20 25 22.46, -21 23 06.9,  121.610929,    13.470239,    468.10,    693.51,   -1.411,  1.717,  348.0168,   -2.374,  1.41139367789333, -8.7992097,    2.2611,/T,    5.1846,  303.8773563, -2.0776318,      20 25 21.03,      -21 23 11.8,   4.2163435,  76.728895,  -6.979631,         n.a.,    n.a.,
 2026-Jan-24 00:00,*, , 20 32 26.85, -20 59 08.7,  120.850073,    13.089935,    463.78,    699.14,   -1.400,  1.735,  347.2400,   -2.382,  1.40617298746405, -9.9851233,    2.6139,/T,    6.0588,  305.5749253, -2.0868270,      20 32 25.42,      -20 59 13.7,   4.2402362,  75.920070,  -7.893177,         n.a.,    n.a.,
 2026-Jan-25 00:00,*, , 20 39 30.93, -20 33 38.5,  120.071236,    12.717127,    459.53,    704.78,   -1.379,  1.763,  346.4735,   -2.392,  1.40025825966868,-11.2096414,    3.0810,/T,    7.2259,  307.2820100, -2.0890682,      20 39 29.51,      -20 33 43.8,   4.2640551,  75.117137,  -8.833913,         n.a.,    n.a.,
 2026-Jan-26 00:00,*, , 20 46 34.56, -20 06 36.5,  119.274504,    12.352008,    455.36,    710.41,   -1.355,  1.796,  345.7184,   -2.404,  1.39362629574095,-12.4758235,    3.6238,/T,    8.6069,  308.9985121, -2.0840611,      20 46 33.15,      -20 06 42.0,   4.2875980,  74.320475,  -9.805379,         n.a.,    n.a.,
 2026-Jan-27 00:00,*, , 20 53 37.58, -19 38 03.0,  118.460032,    11.994824,    451.28,    716.03,   -1.331,  1.829,  344.9755,   -2.416,  1.38625213013429,-13.7867058,    4.2176,/T,   10.1540,  310.7242378, -2.0714974,      20 53 36.18,      -19 38 08.6,   4.3106202,  73.530408,  -10.81139,         n.a.,    n.a.,
 2026-Jan-28 00:00,*, , 21 00 39.80, -19 07 58.2,  117.628053,    11.645889,    447.28,    721.62,   -1.307,  1.863,  344.2458,   -2.430,  1.37810905955725,-15.1452429,    4.8477,/T,   11.8409,  312.4588776, -2.0510549,      21 00 38.40,      -19 08 04.0,   4.3328275,  72.747189,  -11.85604,         n.a.,    n.a.,
 2026-Jan-29 00:00,*, , 21 07 41.00, -18 36 22.9,  116.778898,    11.305596,    443.38,    727.16,   -1.286,  1.894,  343.5303,   -2.446,  1.36916871178712,-16.5542280,    5.5046,/T,   13.6548,  314.2019836, -2.0223982,      21 07 39.62,      -18 36 28.9,   4.3538674,  71.970995,  -12.94378,         n.a.,    n.a.,
